STARLINK-32611          
1 61976U 24210T   26068.32050971  .00035378  00000+0  12881-2 0  9994
2 61976  43.0003 181.8939 0002973 281.0334  79.0183 15.27599373 74822
TEVEL2-8                
1 63239U 25052AF  26068.66815442  .00019130  00000+0  69304-3 0  9993
2 63239  97.4055 324.2923 0008031 124.9191 235.2804 15.28392908 54807
